OBJECT_NAME,OBJECT_ID,EPOCH,MEAN_MOTION,ECCENTRICITY,INCLINATION,RA_OF_ASC_NODE,ARG_OF_PERICENTER,MEAN_ANOMALY,EPHEMERIS_TYPE,CLASSIFICATION_TYPE,NORAD_CAT_ID,ELEMENT_SET_NO,REV_AT_EPOCH,BSTAR,MEAN_MOTION_DOT,MEAN_MOTION_DDOT
COSMOS 2531 (RODNIK-S 17),2018-097B,2026-06-17T23:05:57.956640,12.42913205,.00176925,82.5182,222.8582,56.7565,303.5208,0,U,43752,999,34240,.10289834E-2,.153E-5,0
COSMOS 2532 (RODNIK-S 18),2018-097C,2026-06-17T21:50:46.309344,12.42909779,.00191103,82.5126,221.6763,58.6583,301.6364,0,U,43753,999,34236,-.17680106E-4,.8E-7,0
MINXSS-2,2018-099A,2026-06-17T17:43:39.843840,15.46928292,.00066337,97.4532,245.0393,252.2140,107.8386,0,U,43758,999,41421,.59008496E-3,.29718E-3,0
SIRION PATHFINDER-2,2018-099B,2026-06-17T15:27:41.711328,15.14551067,.0007179,97.4248,217.6909,303.3569,56.6975,0,U,43759,999,41269,.18547563E-3,.3356E-4,0
AISTECHSAT 2,2018-099L,2026-06-17T14:48:46.702080,15.15452752,.00031614,97.4289,216.6419,307.9037,52.1909,0,U,43768,999,41234,.24963768E-3,.4656E-4,0
FOX-1CLIFF (AO-95),2018-099N,2026-06-17T09:43:46.294752,15.26715554,.00079519,97.4379,228.6506,357.1065,3.0126,0,U,43770,999,41325,.33623107E-3,.877E-4,0
RANGE-A,2018-099R,2026-06-17T16:58:01.963488,15.13393523,.00097691,97.3960,211.2709,355.5696,4.5447,0,U,43773,999,41257,.19490401E-3,.3418E-4,0
SNUSAT-2,2018-099AA,2026-06-17T15:53:22.643232,15.21844090,.00085847,97.4054,222.0387,296.5021,63.5334,0,U,43782,999,41310,.26698735E-3,.6004E-4,0
SNUGLITE,2018-099AC,2026-06-17T16:01:42.847392,15.27188145,.00012065,97.3862,222.9431,287.0263,73.0844,0,U,43784,999,41339,.34663441E-3,.9168E-4,0
ITASAT,2018-099AE,2026-06-17T14:44:54.793248,15.19062139,.00120391,97.4024,220.1177,358.8132,1.3072,0,U,43786,999,41297,.27236727E-3,.5652E-4,0
EAGLET-I,2018-099AJ,2026-06-17T15:33:12.625920,15.12942431,.00106189,97.4227,218.3046,352.9170,7.1910,0,U,43790,999,41240,.15701724E-3,.2706E-4,0
ESEO,2018-099AL,2026-06-17T15:30:11.627424,15.04249787,.00112588,97.3975,206.0143,338.4959,21.5793,0,U,43792,999,41187,.1251982E-3,.1685E-4,0
THEA,2018-099AQ,2026-06-17T17:22:01.151616,15.35029307,.00058618,97.4440,238.4209,280.4320,79.6263,0,U,43796,999,41277,.42486649E-3,.14375E-3,0
ASTROCAST 0.1,2018-099AS,2026-06-17T18:40:19.066080,15.49572058,.00051748,97.4371,247.2936,201.8725,158.2306,0,U,43798,999,41452,.53529015E-3,.29537E-3,0
JY1SAT (JO-97),2018-099AX,2026-06-17T03:51:50.109696,15.33652151,.00043325,97.4126,230.9950,262.3288,97.7462,0,U,43803,999,41362,.39004137E-3,.12621E-3,0
SUOMI-100,2018-099AY,2026-06-17T17:31:13.052352,15.28425014,.00083684,97.4180,229.1213,276.6398,83.3889,0,U,43804,999,41350,.35543078E-3,.9773E-4,0
CENTAURI-1,2018-099BD,2026-06-17T16:01:53.691456,15.16370185,.0013029,97.4218,220.3773,332.1745,27.8789,0,U,43809,999,41257,.21264116E-3,.4069E-4,0
GLOBAL-2,2018-099BG,2026-06-17T16:07:20.293824,15.08673241,.00069749,97.3550,205.1652,141.1410,219.0322,0,U,43812,999,41198,.13918608E-3,.2122E-4,0
SEAHAWK-1,2018-099BQ,2026-06-17T17:27:51.273792,15.22815015,.00066985,97.3951,221.2049,313.5327,46.5353,0,U,43820,999,41261,.27830575E-3,.6443E-4,0
SAUDISAT 5A,2018-102A,2026-06-17T22:48:55.804896,15.28055105,.00110505,97.3065,230.5170,126.7259,233.4998,0,U,43831,999,41579,.16976206E-3,.4579E-4,0
SAUDISAT 5B,2018-102C,2026-06-17T23:15:52.869024,15.28311353,.00117303,97.3172,233.6064,128.8888,231.3400,0,U,43833,999,41591,.15992533E-3,.4344E-4,0
ISAT,2018-111D,2026-06-17T19:14:08.653920,15.65390296,.00010643,97.5886,104.0698,148.9986,211.1336,0,U,43879,999,41126,.82021407E-3,.82225E-3,0
UWE-4,2018-111E,2026-06-17T19:08:32.335008,15.46158858,.00054256,97.5854,97.2166,339.8201,20.2832,0,U,43880,999,41087,.56593194E-3,.27737E-3,0
D-STAR ONE (SPARROW),2018-111F,2026-06-17T19:55:27.939936,15.74617867,.00044447,97.6120,109.7297,113.5900,246.5832,0,U,43881,999,41147,.92677568E-3,.13699E-2,0
JILIN-1 09,2019-005B,2026-06-17T21:41:38.865120,15.20519950,.00037874,97.4742,263.8601,93.1383,267.0286,0,U,43943,999,40925,.16789948E-3,.3602E-4,0
JILIN-1 10,2019-005E,2026-06-17T21:55:35.111712,15.25729299,.00065648,97.4790,267.7177,275.8733,84.1756,0,U,43946,999,40942,.18589235E-3,.4669E-4,0
EGYPTSAT-A (MISRSAT-A),2019-008A,2026-06-17T23:00:38.574720,14.72309158,.00012967,98.0188,233.7089,94.9041,265.2314,0,U,44047,999,39335,.10676715E-3,.625E-5,0
EMISAT,2019-018A,2026-06-17T23:25:28.381152,14.43687019,.00177415,98.4645,227.7721,212.1773,147.8336,0,U,44078,999,38017,.3522729E-4,.76E-6,0
