COSMOS 2531 (RODNIK-S *)
1 43752U 18097B   26168.96247635  .00000153  00000+0  10290-2 0  9993
2 43752  82.5182 222.8582 0017692  56.7565 303.5208 12.42913205342400
COSMOS 2532 (RODNIK-S *)
1 43753U 18097C   26168.91025821  .00000008  00000+0 -17680-4 0  9992
2 43753  82.5126 221.6763 0019110  58.6583 301.6364 12.42909779342363
MINXSS-2                
1 43758U 18099A   26168.73865560  .00029718  00000+0  59008-3 0  9998
2 43758  97.4532 245.0393 0006633 252.2140 107.8386 15.46928292414212
SIRION PATHFINDER-2     
1 43759U 18099B   26168.64423277  .00003356  00000+0  18548-3 0  9998
2 43759  97.4248 217.6909 0007179 303.3569  56.6975 15.14551067412696
AISTECHSAT 2            
1 43768U 18099L   26168.61720720  .00004656  00000+0  24964-3 0  9991
2 43768  97.4289 216.6419 0003161 307.9037  52.1909 15.15452752412345
FOX-1CLIFF (AO-95)      
1 43770U 18099N   26168.40539693  .00008770  00000+0  33623-3 0  9991
2 43770  97.4379 228.6506 0007951 357.1065   3.0126 15.26715554413258
RANGE-A                 
1 43773U 18099R   26168.70696717  .00003418  00000+0  19490-3 0  9998
2 43773  97.3960 211.2709 0009769 355.5696   4.5447 15.13393523412570
SNUSAT-2                
1 43782U 18099AA  26168.66206763  .00006004  00000+0  26699-3 0  9994
2 43782  97.4054 222.0387 0008584 296.5021  63.5334 15.21844090413106
SNUGLITE                
1 43784U 18099AC  26168.66785703  .00009168  00000+0  34663-3 0  9996
2 43784  97.3862 222.9431 0001206 287.0263  73.0844 15.27188145413391
ITASAT                  
1 43786U 18099AE  26168.61452307  .00005652  00000+0  27237-3 0  9997
2 43786  97.4024 220.1177 0012039 358.8132   1.3072 15.19062139412974
EAGLET-I                
1 43790U 18099AJ  26168.64806280  .00002706  00000+0  15702-3 0  9999
2 43790  97.4227 218.3046 0010618 352.9170   7.1910 15.12942431412404
ESEO                    
1 43792U 18099AL  26168.64596791  .00001685  00000+0  12520-3 0  9994
2 43792  97.3975 206.0143 0011258 338.4959  21.5793 15.04249787411876
THEA                    
1 43796U 18099AQ  26168.72362444  .00014375  00000+0  42487-3 0  9998
2 43796  97.4440 238.4209 0005861 280.4320  79.6263 15.35029307412775
ASTROCAST 0.1           
1 43798U 18099AS  26168.77799845  .00029537  00000+0  53529-3 0  9999
2 43798  97.4371 247.2936 0005174 201.8725 158.2306 15.49572058414526
JY1SAT (JO-97)          
1 43803U 18099AX  26168.16099664  .00012621  00000+0  39004-3 0  9999
2 43803  97.4126 230.9950 0004332 262.3288  97.7462 15.33652151413623
SUOMI-100               
1 43804U 18099AY  26168.73001218  .00009773  00000+0  35543-3 0  9999
2 43804  97.4180 229.1213 0008368 276.6398  83.3889 15.28425014413500
CENTAURI-1              
1 43809U 18099BD  26168.66798254  .00004069  00000+0  21264-3 0  9997
2 43809  97.4218 220.3773 0013029 332.1745  27.8789 15.16370185412578
GLOBAL-2                
1 43812U 18099BG  26168.67176266  .00002122  00000+0  13919-3 0  9991
2 43812  97.3550 205.1652 0006974 141.1410 219.0322 15.08673241411987
SEAHAWK-1               
1 43820U 18099BQ  26168.72767678  .00006443  00000+0  27831-3 0  9997
2 43820  97.3951 221.2049 0006698 313.5327  46.5353 15.22815015412616
SAUDISAT 5A             
1 43831U 18102A   26168.95064589  .00004579  00000+0  16976-3 0  9996
2 43831  97.3065 230.5170 0011050 126.7259 233.4998 15.28055105415794
SAUDISAT 5B             
1 43833U 18102C   26168.96936191  .00004344  00000+0  15993-3 0  9994
2 43833  97.3172 233.6064 0011730 128.8888 231.3400 15.28311353415916
ISAT                    
1 43879U 18111D   26168.80148905  .00082225  00000+0  82021-3 0  9995
2 43879  97.5886 104.0698 0001064 148.9986 211.1336 15.65390296411267
UWE-4                   
1 43880U 18111E   26168.79759647  .00027737  00000+0  56593-3 0  9998
2 43880  97.5854  97.2166 0005425 339.8201  20.2832 15.46158858410874
D-STAR ONE (SPARROW)    
1 43881U 18111F   26168.83018449  .00136990  00000+0  92678-3 0  9998
2 43881  97.6120 109.7297 0004444 113.5900 246.5832 15.74617867411470
JILIN-1 09              
1 43943U 19005B   26168.90392205  .00003602  00000+0  16790-3 0  9997
2 43943  97.4742 263.8601 0003787  93.1383 267.0286 15.20519950409254
JILIN-1 10              
1 43946U 19005E   26168.91360083  .00004669  00000+0  18589-3 0  9992
2 43946  97.4790 267.7177 0006564 275.8733  84.1756 15.25729299409428
EGYPTSAT-A (MISRSAT-A)  
1 44047U 19008A   26168.95877980  .00000625  00000+0  10677-3 0  9999
2 44047  98.0188 233.7089 0001296  94.9041 265.2314 14.72309158393358
EMISAT                  
1 44078U 19018A   26168.97602293  .00000076  00000+0  35227-4 0  9998
2 44078  98.4645 227.7721 0017741 212.1773 147.8336 14.43687019380176
